*******************************************************************************
 Revised: Apr 02, 2026        Artemis II / Spacecraft (Earth)             -1024
          18:46 UTC       https://www.nasa.gov/mission/artemis-ii/
                         https://www.nasa.gov/artemis-ii-press-kit/

 BACKGROUND:
  Four astronauts will fly aboard NASA's Orion spacecraft to confirm the 
  spacecraft's systems operate as designed in preparation for a sustained 
  human presence on the Moon. 

  Artemis II astronauts are NASA's Reid Wiseman (Commander), Victor Glover 
  (pilot), Christina Koch (Mission Specialist), and CSA (Canadian Space 
  Agency) astronaut Jeremy Hansen (Mission Specialist).

  "Artemis II" refers to a specific mission within the broader Artemis program.
  "Orion" refers to the spacecraft/capsule the astronauts ride within. The
    crew has chosen the nickname "Integrity" for the Artemis II Orion capsule.
  "SLS" refers to the Space Launch System, or rocket launching Orion into space

 MAJOR EVENTS:
  Launched April 1 @ 22:35:12 UTC from pad LC-39B at the Kennedy Space 
  Center, USA.  Mission length is 10 days.

  MET column below gives timings of major dynamical events RELATIVE TO LAUNCH.
  Format is "days/HH:MM:SS" since launch. Given launch time, MET converted to 
  absolute UTC date/time is also given, format "date HH:MM:{SS}". As the 
  mission develops, some times may differ somewhat from planning:

  Day 1        MET     Apr  UTC
    launch   0/00:00    1 22:35:12 - Launch April 1, 22:35:12 UTC
    launch + 0/00:20    1 22:55    - Orion deploys solar arrays in Earth orbit
             0/00:49:50 1 23:25:02 - Perigee raise maneuver (2223 x 185 km)
             0/01:47:57 2 00:23:09 - Apogee raise maneuver  (70377 km)
             0/03:24:18 2 01:59:30 - Orion/ICPS separation
             0/04:50    2 03:25    - Orion upper stage separation burn
             0/05:00    2 03:35    - ICPS disposal burn for Pacific splashdown 
             0/05:04    2 03:39    - Cubesats deploy at one minute intervals
             0/12:55    2 11:30    - Perigee raise burn
  Day 2
    launch + 1/01:14    2 23:49    - Start Translunar Injection burn (5m 55s)
             1/01:19    2 23:54    - End TLI (delta-v= 388 m/s)
             1/01:35    3 00:10    - Earth shadow entrance 
             1/02:41    3 01:17    - Earth shadow exit
  Day 3
    launch + 2/00:08    3 22:43    - Orbit trajectory correction burn #1
  Day 4
    launch + 3/01:08    4 23:43    - Orbit trajectory correction burn #2
  Day 5
    launch + 4/04:29    6 03:04    - Orbit trajectory correction burn #3
             4/06:08    6 04:43    - Orion enters lunar sphere of influence
  Day 6
    launch + 5/00:31    6 23:06    - Closest approach to the Moon	
             5/00:34    6 23:09    - Maximum distance from Earth
  Day 7
    launch + 5/18:52    7 17:27    - Orion exits lunar sphere of influence
             6/01:29    8 00:04    - Return trajectory correction burn #1
  Day 8
    launch + 7/04:20    9 02:55    - Manual piloting demonstration
  Day 9
    launch + 8/04:29   10 03:04    - Return trajectory correction burn #2
  Day 10
    launch + 8/20:29   10 19:04    - Return trajectory correction burn #3
             9/01:09   10 23:44    - Orion crew and service module separation
             9/01:12   10 23:47    - Crew module raise burn
             9/01:29   11 00:04    - Entry interface (122 km above Earth)
                                     Events by altitude:
                                      11 km : Forward bay cover deploys
                                      7.6 km: Droque parachute deploys
                                      2.9 km: Pilot parachutes deploy @ 2.9 km,
                                              pulling out 3 main parachutes
             9/01:42   11 00:17    - Splashdown, Pacific Ocean, off Baja Cali.
             9/01:57   11 00:32    - Orion final power down

 SPACECRAFT DETAILS
  SLS                
   * Height                : 98 meters
   * Mass at liftoff       : 2.61 million kg
   * Thrust at liftoff     : 39.1 million Newtons
   * Payload to the moon   : 27,000 kg
 
  Orion module ("Integrity")
   * Crew + service mod hgt: 7.92 meters
   * Pressurized volume    : 19.6 m^3 
   * Mass to the Moon      : ~27,000 kg
   * Return mass at landing: ~10,400 kg (6500kg srvc mod, 1000kg adpt. discard)
   * Propellant usage      : ~ 9,000 kg
  
 CUBESATS DISPENSED 
  All are 12U CubeSats from international partners tied to the Artemis Accords.
  Independent missions and trajectories once released on Day 1.

   1. ATENEA (Argentina space agency, CONAE)
       Studies: Radiation environment, shielding techniques, communication
                systems
       Goal   : Improve future deep-space mission design

   2. TACHELES (Germany, German Aerospace Center (DLR))
       Focus  : Testing electronics and components
       Goal   : Validating tech for future lunar vehicles and infrastructure

   3. K-RadCube (South Korea, Korea AeroSpace Administration (KASA))
       Mission: Measure space radiation using materials that mimic human tissue
       Goal   : Study biological effects of radiation in space

   4. Space Weather CubeSat-1 (Saudi Arabia, Saudi Space Agency)
       Studies: Solar radiation, magnetic fields, space weather conditions 
                in high Earth orbit

 SPACECRAFT TRAJECTORY:
  Post-launch Orion II trajectory data from NASA/JSC navigation (concatenated):
  Trajectory data starts after nominal ICPS separation, 3h24m18s after launch, 

  Trajectory name                              Start (TDB)    Stop (TDB)
  ----------------------------------------- ----------------- -----------------
  Orion_OEM_20260401_0335.V0.1              2026-Apr-02 01:59 2026-Apr-10 03:27
  Orion_OEM_20260402_1414.V0.1              2026-Apr-02 03:27 2026-Apr-10 23:52
*******************************************************************************


*******************************************************************************
Ephemeris / API_USER Thu Apr  2 17:16:28 2026 Pasadena, USA      / Horizons
*******************************************************************************
Target body name: Artemis II (spacecraft) (-1024) {source: Artemis_II_merged}
Center body name: Earth (399)                     {source: DE441}
Center-site name: BODY CENTER
*******************************************************************************
Start time      : A.D. 2026-Apr-02 23:16:27.0000 TDB
Stop  time      : A.D. 2026-Apr-03 01:16:27.0000 TDB
Step-size       : 10 minutes
*******************************************************************************
Center geodetic : 0.0, 0.0, 0.0                   {E-lon(deg),Lat(deg),Alt(km)}
Center cylindric: 0.0, 0.0, 0.0                   {E-lon(deg),Dxy(km),Dz(km)}
Center radii    : 6378.137, 6378.137, 6356.752 km {Equator_a, b, pole_c}
Output units    : KM-S
Calendar mode   : Mixed Julian/Gregorian
Output type     : GEOMETRIC cartesian states
Output format   : 3 (position, velocity, LT, range, range-rate)
EOP file        : eop.260402.p260629
EOP coverage    : DATA-BASED 1962-JAN-20 TO 2026-APR-02. PREDICTS-> 2026-JUN-28
Reference frame : Ecliptic of J2000.0
*******************************************************************************
JDTDB
   X     Y     Z
   VX    VY    VZ
   LT    RG    RR
*******************************************************************************
$$SOE
2461133.469756945 = A.D. 2026-Apr-02 23:16:27.0000 TDB 
 X = 1.325657372102885E+04 Y =-6.096356797305513E+03 Z =-4.452939562670449E+02
 VX=-2.306189842693211E+00 VY= 6.279296639642949E+00 VZ= 5.229284065215847E-01
 LT= 4.869357187895564E-02 RG= 1.459796560239179E+04 RR=-4.732568027383252E+00
2461133.476701389 = A.D. 2026-Apr-02 23:26:27.0000 TDB 
 X = 1.150894946208153E+04 Y =-2.194623117973541E+03 Z =-1.221082119636861E+02
 VX=-3.633793809896907E+00 VY= 6.704186409369554E+00 VZ= 5.518059717663970E-01
 LT= 3.908357831654713E-02 RG= 1.171696201095317E+04 RR=-4.830748088334326E+00
2461133.483645834 = A.D. 2026-Apr-02 23:36:27.0000 TDB 
 X = 8.704761512362622E+03 Y = 1.866250119874948E+03 Z = 2.087221277437312E+02
 VX=-5.921789963576416E+00 VY= 6.678127620001606E+00 VZ= 5.365451506054799E-01
 LT= 2.970393931837013E-02 RG= 8.905016980537024E+03 RR=-4.376490704911806E+00
2461133.490590278 = A.D. 2026-Apr-02 23:46:27.0000 TDB 
 X = 4.161970014564457E+03 Y = 5.412518721419679E+03 Z = 4.852950448697029E+02
 VX=-9.256040489000965E+00 VY= 4.557763967075382E+00 VZ= 3.397245272413447E-01
 LT= 2.283217957511652E-02 RG= 6.844915236321576E+03 RR=-1.999953698020483E+00
2461133.497534722 = A.D. 2026-Apr-02 23:56:27.0000 TDB 
 X =-1.981497451403362E+03 Y = 6.680641484186855E+03 Z = 5.381092770245773E+02
 VX=-1.056430929537431E+01 VY=-4.330131204788334E-01 VZ=-2.132159527032028E-01
 LT= 2.331297201025585E-02 RG= 6.989053182239801E+03 RR= 2.564812797840099E+00
2461133.504479167 = A.D. 2026-Apr-03 00:06:27.0000 TDB 
 X =-7.723858890908195E+03 Y = 5.367031623772482E+03 Z = 3.248524510802038E+02
 VX=-8.437170491482874E+00 VY=-3.407272661637048E+00 VZ=-4.411384170724721E-01
 LT= 3.139200635109669E-02 RG= 9.411086745546887E+03 RR= 4.966192593537636E+00
2461133.511423611 = A.D. 2026-Apr-03 00:16:27.0000 TDB 
 X =-1.219593748119158E+04 Y = 3.015485207107804E+03 Z = 4.404753735450117E+01
 VX=-6.596983941241308E+00 VY=-4.239783306566726E+00 VZ=-4.805778649011399E-01
 LT= 4.190658832622777E-02 RG= 1.256327912071393E+04 RR= 5.384759102145052E+00
2461133.518368056 = A.D. 2026-Apr-03 00:26:27.0000 TDB 
 X =-1.577079437693592E+04 Y = 4.067940735605040E+02 Z =-2.431249956149857E+02
 VX=-5.404046499398079E+00 VY=-4.400738951762662E+00 VZ=-4.734072204887483E-01
 LT= 5.262945356683596E-02 RG= 1.577791324799862E+04 RR= 5.295441002601987E+00
2461133.525312500 = A.D. 2026-Apr-03 00:36:27.0000 TDB 
 X =-1.875863545665586E+04 Y =-2.227633019916226E+03 Z =-5.221602568018392E+02
 VX=-4.604422124231051E+00 VY=-4.363770105338725E+00 VZ=-4.561189298820425E-01
 LT= 6.303579543597594E-02 RG= 1.889765605573641E+04 RR= 5.097548679499059E+00
2461133.532256945 = A.D. 2026-Apr-03 00:46:27.0000 TDB 
 X =-2.134180912315294E+04 Y =-4.818098067747772E+03 Z =-7.902736984851651E+02
 VX=-4.035752953086572E+00 VY=-4.266083335297916E+00 VZ=-4.376825209672806E-01
 LT= 7.302779445393991E-02 RG= 2.189318200166541E+04 RR= 4.888762448697024E+00
2461133.539201389 = A.D. 2026-Apr-03 00:56:27.0000 TDB 
 X =-2.362996977686669E+04 Y =-7.343853682539158E+03 Z =-1.047616623440162E+03
 VX=-3.610450924140471E+00 VY=-4.152175530427698E+00 VZ=-4.203832398548450E-01
 LT= 8.261387805437864E-02 RG= 2.476701756683443E+04 RR= 4.693670359564649E+00
2461133.546145834 = A.D. 2026-Apr-03 01:06:27.0000 TDB 
 X =-2.569309924963232E+04 Y =-9.800666391902767E+03 Z =-1.295061186631292E+03
 VX=-3.279522999221408E+00 VY=-4.037759601559483E+00 VZ=-4.047075503656981E-01
 LT= 9.182805649297845E-02 RG= 2.752935876939287E+04 RR= 4.517285230584832E+00
2461133.553090278 = A.D. 2026-Apr-03 01:16:27.0000 TDB 
 X =-2.757838899264307E+04 Y =-1.219021446248759E+04 Z =-1.533585416564200E+03
 VX=-3.013898405248199E+00 VY=-3.928475049346312E+00 VZ=-3.906267411074127E-01
 LT= 1.007076767749910E-01 RG= 3.019140195984407E+04 RR= 4.359071354646908E+00
$$EOE
*******************************************************************************
 
TIME

  Barycentric Dynamical Time ("TDB" or T_eph) output was requested. This
continuous coordinate time is equivalent to the relativistic proper time
of a clock at rest in a reference frame co-moving with the solar system
barycenter but outside the system's gravity well. It is the independent
variable in the solar system relativistic equations of motion.

  TDB runs at a uniform rate of one SI second per second and is independent
of irregularities in Earth's rotation.
 
CALENDAR SYSTEM

  Mixed calendar mode was active such that calendar dates after AD 1582-Oct-15
(if any) are in the modern Gregorian system. Dates prior to 1582-Oct-5 (if any)
are in the Julian calendar system, which is automatically extended for dates
prior to its adoption on 45-Jan-1 BC.  The Julian calendar is useful for
matching historical dates. The Gregorian calendar more accurately corresponds
to the Earth's orbital motion and seasons. A "Gregorian-only" calendar mode is
available if such physical events are the primary interest.

REFERENCE FRAME AND COORDINATES

  Ecliptic at the standard reference epoch

    Reference epoch: J2000.0
    X-Y plane: adopted Earth orbital plane at the reference epoch
               Note: IAU76 obliquity of 84381.448 arcseconds wrt ICRF X-Y plane
    X-axis   : ICRF
    Z-axis   : perpendicular to the X-Y plane in the directional (+ or -) sense
               of Earth's north pole at the reference epoch.

  Symbol meaning:

    JDTDB    Julian Day Number, Barycentric Dynamical Time
      X      X-component of position vector (km)
      Y      Y-component of position vector (km)
      Z      Z-component of position vector (km)
      VX     X-component of velocity vector (km/sec)                           
      VY     Y-component of velocity vector (km/sec)                           
      VZ     Z-component of velocity vector (km/sec)                           
      LT     One-way down-leg Newtonian light-time (sec)
      RG     Range; distance from coordinate center (km)
      RR     Range-rate; radial velocity wrt coord. center (km/sec)

ABERRATIONS AND CORRECTIONS

 Geometric state vectors have NO corrections or aberrations applied.

Computations by ...

    Solar System Dynamics Group, Horizons On-Line Ephemeris System
    4800 Oak Grove Drive, Jet Propulsion Laboratory
    Pasadena, CA  91109   USA

    General site: https://ssd.jpl.nasa.gov/
    Mailing list: https://ssd.jpl.nasa.gov/email_list.html
    System news : https://ssd.jpl.nasa.gov/horizons/news.html
    User Guide  : https://ssd.jpl.nasa.gov/horizons/manual.html
    Connect     : browser        https://ssd.jpl.nasa.gov/horizons/app.html#/x
                  API            https://ssd-api.jpl.nasa.gov/doc/horizons.html
                  command-line   telnet ssd.jpl.nasa.gov 6775
                  e-mail/batch   https://ssd.jpl.nasa.gov/ftp/ssd/horizons_batch.txt
                  scripts        https://ssd.jpl.nasa.gov/ftp/ssd/SCRIPTS
    Author      : Jon.D.Giorgini@jpl.nasa.gov
*******************************************************************************
